{"type": "FeatureCollection", "features": [ {"type": "Feature", "properties": {"norad_id": 60989, "name": "SENTINEL-2C", "group": "resource", "lat": -7.098166038136892, "lon": 70.3579572788748, "alt_km": 792.9412196770218, "timestamp": "2025-12-22T22:44:20.608720+00:00", "meta": {"OBJECT_NAME": "SENTINEL-2C", "OBJECT_ID": "2024-157A", "EPOCH": "2025-12-22T02:37:57.768096", "MEAN_MOTION": 14.30821207, "ECCENTRICITY": 0.00011935, "INCLINATION": 98.5671, "RA_OF_ASC_NODE": 68.4569, "ARG_OF_PERICENTER": 95.079, "MEAN_ANOMALY": 265.0529, "EPHEMERIS_TYPE": 0, "CLASSIFICATION_TYPE": "U", "NORAD_CAT_ID": 60989, "ELEMENT_SET_NO": 999, "REV_AT_EPOCH": 6766, "BSTAR": 7.3686296e-05, "MEAN_MOTION_DOT": 1.5e-06, "MEAN_MOTION_DDOT": 0}, "tle": {"line1": "1 60989U 24157A   25356.10969639  .00000150  00000+0  73686-4 0  9994", "line2": "2 60989  98.5671  68.4569 0001193  95.0790 265.0529 14.30821207 67664"}}, "geometry": {"type": "Point", "coordinates": [70.3579572788748, -7.098166038136892]}}, {"type": "Feature", "properties": {"norad_id": 61735, "name": "IONOSFERA-M 1", "group": "resource", "lat": -37.532024993236114, "lon": -126.49579419865037, "alt_km": 822.2878641174802, "timestamp": "2025-12-22T22:44:20.608730+00:00", "meta": {"OBJECT_NAME": "IONOSFERA-M 1", "OBJECT_ID": "2024-199A", "EPOCH": "2025-12-22T19:32:30.501888", "MEAN_MOTION": 14.2271614, "ECCENTRICITY": 4.64e-05, "INCLINATION": 98.7404, "RA_OF_ASC_NODE": 226.5848, "ARG_OF_PERICENTER": 7.513, "MEAN_ANOMALY": 352.6055, "EPHEMERIS_TYPE": 0, "CLASSIFICATION_TYPE": "U", "NORAD_CAT_ID": 61735, "ELEMENT_SET_NO": 999, "REV_AT_EPOCH": 10262, "BSTAR": 4.3077e-05, "MEAN_MOTION_DOT": 5.2e-07, "MEAN_MOTION_DDOT": 0}, "tle": {"line1": "1 61735U 24199A   25356.81424192  .00000052  00000+0  43077-4 0  9990", "line2": "2 61735  98.7404 226.5848 0000464   7.5130 352.6055 14.22716140102626"}}, "geometry": {"type": "Point", "coordinates": [-126.49579419865037, -37.532024993236114]}}, {"type": "Feature", "properties": {"norad_id": 61736, "name": "IONOSFERA-M 2", "group": "resource", "lat": 34.63324742102593, "lon": 52.728418858094116, "alt_km": 812.9683962772706, "timestamp": "2025-12-22T22:44:20.608740+00:00", "meta": {"OBJECT_NAME": "IONOSFERA-M 2", "OBJECT_ID": "2024-199B", "EPOCH": "2025-12-22T15:18:33.783264", "MEAN_MOTION": 14.22718309, "ECCENTRICITY": 0.00018314, "INCLINATION": 98.7396, "RA_OF_ASC_NODE": 226.3222, "ARG_OF_PERICENTER": 97.8626, "MEAN_ANOMALY": 262.276, "EPHEMERIS_TYPE": 0, "CLASSIFICATION_TYPE": "U", "NORAD_CAT_ID": 61736, "ELEMENT_SET_NO": 999, "REV_AT_EPOCH": 10572, "BSTAR": 4.3957363e-05, "MEAN_MOTION_DOT": 5.4e-07, "MEAN_MOTION_DDOT": 0}, "tle": {"line1": "1 61736U 24199B   25356.63789101  .00000054  00000+0  43957-4 0  9994", "line2": "2 61736  98.7396 226.3222 0001831  97.8626 262.2760 14.22718309105724"}}, "geometry": {"type": "Point", "coordinates": [52.728418858094116, 34.63324742102593]}}, {"type": "Feature", "properties": {"norad_id": 63772, "name": "BIOMASS", "group": "resource", "lat": -1.358181333496479, "lon": 1.6154103784544394, "alt_km": 672.251693143463, "timestamp": "2025-12-22T22:44:20.608750+00:00", "meta": {"OBJECT_NAME": "BIOMASS", "OBJECT_ID": "2025-090A", "EPOCH": "2025-12-22T12:05:51.393984", "MEAN_MOTION": 14.67537759, "ECCENTRICITY": 0.00010953, "INCLINATION": 98.0697, "RA_OF_ASC_NODE": 181.3714, "ARG_OF_PERICENTER": 82.1383, "MEAN_ANOMALY": 277.9946, "EPHEMERIS_TYPE": 0, "CLASSIFICATION_TYPE": "U", "NORAD_CAT_ID": 63772, "ELEMENT_SET_NO": 999, "REV_AT_EPOCH": 3477, "BSTAR": 0.00022198106, "MEAN_MOTION_DOT": 1.211e-05, "MEAN_MOTION_DDOT": 0}, "tle": {"line1": "1 63772U 25090A   25356.50406706  .00001211  00000+0  22198-3 0  9999", "line2": "2 63772  98.0697 181.3714 0001095  82.1383 277.9946 14.67537759 34770"}}, "geometry": {"type": "Point", "coordinates": [1.6154103784544394, -1.358181333496479]}}, {"type": "Feature", "properties": {"norad_id": 64694, "name": "GOSAT-GW (IBUKI GW)", "group": "resource", "lat": 31.242118133062654, "lon": -72.64539167742427, "alt_km": 666.5155249601339, "timestamp": "2025-12-22T22:44:20.608760+00:00", "meta": {"OBJECT_NAME": "GOSAT-GW (IBUKI GW)", "OBJECT_ID": "2025-141A", "EPOCH": "2025-12-22T19:19:22.470816", "MEAN_MOTION": 14.67564067, "ECCENTRICITY": 0.0001428, "INCLINATION": 98.0437, "RA_OF_ASC_NODE": 292.136, "ARG_OF_PERICENTER": 84.1281, "MEAN_ANOMALY": 276.0087, "EPHEMERIS_TYPE": 0, "CLASSIFICATION_TYPE": "U", "NORAD_CAT_ID": 64694, "ELEMENT_SET_NO": 999, "REV_AT_EPOCH": 2597, "BSTAR": 0.00016303, "MEAN_MOTION_DOT": 8.77e-06, "MEAN_MOTION_DDOT": 0}, "tle": {"line1": "1 64694U 25141A   25356.80512119  .00000877  00000+0  16303-3 0  9997", "line2": "2 64694  98.0437 292.1360 0001428  84.1281 276.0087 14.67564067 25973"}}, "geometry": {"type": "Point", "coordinates": [-72.64539167742427, 31.242118133062654]}}, {"type": "Feature", "properties": {"norad_id": 64876, "name": "IONOSFERA-M 3", "group": "resource", "lat": 37.27838516288435, "lon": 145.12417871350993, "alt_km": 817.9635918372214, "timestamp": "2025-12-22T22:44:20.608771+00:00", "meta": {"OBJECT_NAME": "IONOSFERA-M 3", "OBJECT_ID": "2025-155A", "EPOCH": "2025-12-22T20:23:00.187872", "MEAN_MOTION": 14.21443384, "ECCENTRICITY": 0.0001926, "INCLINATION": 98.5797, "RA_OF_ASC_NODE": 318.4299, "ARG_OF_PERICENTER": 43.3249, "MEAN_ANOMALY": 316.808, "EPHEMERIS_TYPE": 0, "CLASSIFICATION_TYPE": "U", "NORAD_CAT_ID": 64876, "ELEMENT_SET_NO": 999, "REV_AT_EPOCH": 2135, "BSTAR": 5.3548e-05, "MEAN_MOTION_DOT": 7.4e-07, "MEAN_MOTION_DDOT": 0}, "tle": {"line1": "1 64876U 25155A   25356.84930773  .00000074  00000+0  53548-4 0  9990", "line2": "2 64876  98.5797 318.4299 0001926  43.3249 316.8080 14.21443384 21358"}}, "geometry": {"type": "Point", "coordinates": [145.12417871350993, 37.27838516288435]}}, {"type": "Feature", "properties": {"norad_id": 64877, "name": "IONOSFERA-M 4", "group": "resource", "lat": -36.81259415135774, "lon": -35.06774983170197, "alt_km": 826.7836615779825, "timestamp": "2025-12-22T22:44:20.608781+00:00", "meta": {"OBJECT_NAME": "IONOSFERA-M 4", "OBJECT_ID": "2025-155B", "EPOCH": "2025-12-22T14:28:02.166240", "MEAN_MOTION": 14.21444452, "ECCENTRICITY": 0.00013568, "INCLINATION": 98.5795, "RA_OF_ASC_NODE": 318.1097, "ARG_OF_PERICENTER": 54.0306, "MEAN_ANOMALY": 306.0998, "EPHEMERIS_TYPE": 0, "CLASSIFICATION_TYPE": "U", "NORAD_CAT_ID": 64877, "ELEMENT_SET_NO": 999, "REV_AT_EPOCH": 2131, "BSTAR": 4.8571163e-05, "MEAN_MOTION_DOT": 6.3e-07, "MEAN_MOTION_DDOT": 0}, "tle": {"line1": "1 64877U 25155B   25356.60280285  .00000063  00000+0  48571-4 0  9999", "line2": "2 64877  98.5795 318.1097 0001356  54.0306 306.0998 14.21444452 21312"}}, "geometry": {"type": "Point", "coordinates": [-35.06774983170197, -36.81259415135774]}}, {"type": "Feature", "properties": {"norad_id": 64899, "name": "MICROCARB", "group": "resource", "lat": 5.0498532538234535, "lon": -107.15909159804151, "alt_km": 650.7449105319347, "timestamp": "2025-12-22T22:44:20.608791+00:00", "meta": {"OBJECT_NAME": "MICROCARB", "OBJECT_ID": "2025-156A", "EPOCH": "2025-12-22T04:00:16.111296", "MEAN_MOTION": 14.72071696, "ECCENTRICITY": 0.00175613, "INCLINATION": 98.0014, "RA_OF_ASC_NODE": 71.3608, "ARG_OF_PERICENTER": 116.4521, "MEAN_ANOMALY": 243.8491, "EPHEMERIS_TYPE": 0, "CLASSIFICATION_TYPE": "U", "NORAD_CAT_ID": 64899, "ELEMENT_SET_NO": 999, "REV_AT_EPOCH": 2192, "BSTAR": 0.00011167733, "MEAN_MOTION_DOT": 6.54e-06, "MEAN_MOTION_DDOT": 0}, "tle": {"line1": "1 64899U 25156A   25356.16685314  .00000654  00000+0  11168-3 0  9994", "line2": "2 64899  98.0014  71.3608 0017561 116.4521 243.8491 14.72071696 21923"}}, "geometry": {"type": "Point", "coordinates": [-107.15909159804151, 5.0498532538234535]}}, {"type": "Feature", "properties": {"norad_id": 64900, "name": "CO3D 3", "group": "resource", "lat": -2.1091878492127316, "lon": -107.10707396102457, "alt_km": 508.8178464884186, "timestamp": "2025-12-22T22:44:20.608801+00:00", "meta": {"OBJECT_NAME": "CO3D 3", "OBJECT_ID": "2025-156B", "EPOCH": "2025-12-22T14:02:32.609760", "MEAN_MOTION": 15.20209843, "ECCENTRICITY": 0.00013345, "INCLINATION": 97.4341, "RA_OF_ASC_NODE": 72.8113, "ARG_OF_PERICENTER": 76.6298, "MEAN_ANOMALY": 283.5086, "EPHEMERIS_TYPE": 0, "CLASSIFICATION_TYPE": "U", "NORAD_CAT_ID": 64900, "ELEMENT_SET_NO": 999, "REV_AT_EPOCH": 2270, "BSTAR": 0.00027936979, "MEAN_MOTION_DOT": 5.986e-05, "MEAN_MOTION_DDOT": 0}, "tle": {"line1": "1 64900U 25156B   25356.58509965  .00005986  00000+0  27937-3 0  9994", "line2": "2 64900  97.4341  72.8113 0001334  76.6298 283.5086 15.20209843 22707"}}, "geometry": {"type": "Point", "coordinates": [-107.10707396102457, -2.1091878492127316]}}, {"type": "Feature", "properties": {"norad_id": 64901, "name": "CO3D 4", "group": "resource", "lat": -1.2710970387052505, "lon": -106.9974922327275, "alt_km": 507.539873798838, "timestamp": "2025-12-22T22:44:20.608812+00:00", "meta": {"OBJECT_NAME": "CO3D 4", "OBJECT_ID": "2025-156C", "EPOCH": "2025-12-22T14:02:45.782304", "MEAN_MOTION": 15.20216995, "ECCENTRICITY": 0.00013522, "INCLINATION": 97.434, "RA_OF_ASC_NODE": 72.8115, "ARG_OF_PERICENTER": 164.5243, "MEAN_ANOMALY": 195.6034, "EPHEMERIS_TYPE": 0, "CLASSIFICATION_TYPE": "U", "NORAD_CAT_ID": 64901, "ELEMENT_SET_NO": 999, "REV_AT_EPOCH": 2270, "BSTAR": 0.00028418606, "MEAN_MOTION_DOT": 6.092e-05, "MEAN_MOTION_DDOT": 0}, "tle": {"line1": "1 64901U 25156C   25356.58525211  .00006092  00000+0  28419-3 0  9992", "line2": "2 64901  97.4340  72.8115 0001352 164.5243 195.6034 15.20216995 22708"}}, "geometry": {"type": "Point", "coordinates": [-106.9974922327275, -1.2710970387052505]}}]}